[
    {
        "Altitude(m)": 604969.0890023041,
        "Argument of Periapsis(deg)": 0.0,
        "Eccentricity": 0.0,
        "Inclination(deg)": 60.0,
        "Latitude(deg)": -0.09254873970009418,
        "Longitude(deg)": 64.97752771145457,
        "Mean Anomaly(deg)": 0.0,
        "RAAN(deg)": 165.0,
        "Satellite Name": "Test1 726",
        "Satellite Number": 726,
        "Semi-Major Axis(m)": 6980739.136638005,
        "Time(s)": 0
    },
    {
        "Altitude(m)": 604900.0292827275,
        "Argument of Periapsis(deg)": 0.00010418945913296404,
        "Eccentricity": 0.0,
        "Inclination(deg)": 60.0,
        "Latitude(deg)": 0.44787746648216853,
        "Longitude(deg)": 65.24565012308898,
        "Mean Anomaly(deg)": 0.6201061454618275,
        "RAAN(deg)": 164.99957995086024,
        "Satellite Name": "Test1 726",
        "Satellite Number": 726,
        "Semi-Major Axis(m)": 6980739.136638005,
        "Time(s)": 10
    }
]